IRIDIUM 159             
1 43578U 18061K   24128.61294586  .00000216  00000+0  69958-4 0  9990
2 43578  86.4009  18.7381 0002382  90.1759 269.9709 14.34217858302932
IRIDIUM 180             
1 43922U 19002A   24128.61245078  .00000133  00000+0  40411-4 0  9992
2 43922  86.3951 315.6375 0001859  93.3961 266.7447 14.34210805278548
IRIDIUM 176             
1 43923U 19002B   24128.54121480  .00000538  00000+0  81360-4 0  9992
2 43923  86.6063 315.6927 0002492  93.9292 266.2210 14.72242115285863
IRIDIUM 168             
1 43924U 19002C   24128.60609761  .00000122  00000+0  36569-4 0  9993
2 43924  86.3937 315.6964 0002149  92.3927 267.7515 14.34216259278526
IRIDIUM 173             
1 43925U 19002D   24128.59341140  .00000129  00000+0  39138-4 0  9998
2 43925  86.3933 315.6220 0002224  90.4065 269.7385 14.34216857278503
IRIDIUM 169             
1 43926U 19002E   24128.57430775  .00000514  00000+0  16164-3 0  9991
2 43926  86.4238 347.2470 0003342  47.4509 312.6971 14.38610183279434
IRIDIUM 172             
1 43927U 19002F   24128.58706822  .00000130  00000+0  39235-4 0  9991
2 43927  86.3934 315.6302 0002180  92.5476 267.5969 14.34217281278514
IRIDIUM 175             
1 43928U 19002G   24128.39941565  .00001844  00000+0  28836-3 0  9993
2 43928  86.1467 291.1871 0002324  87.8792 272.2691 14.72260937285837
